NORAD_CAT_ID,OBJECT_NAME,OBJECT_TYPE,EPOCH,MEAN_MOTION,ECCENTRICITY,INCLINATION,RA_OF_ASC_NODE,ARG_OF_PERICENTER,MEAN_ANOMALY,BSTAR,MEAN_MOTION_DOT,MEAN_MOTION_DDOT,TLE_LINE0,TLE_LINE1,TLE_LINE2,SEMIMAJOR_AXIS,PERIOD,APOGEE,PERIGEE,DECAYED
54759.0,STARLINK-5215,PAYLOAD,2023-12-08 13:38:58,15.08837754,0.0001454,53.2168,129.9936,100.0072,260.1084,5.6255e-05,6.07e-06,0.0,0 STARLINK-5215,1 54759U 22175B   23342.56873140  .00000607  00000-0  56255-4 0  9995,2 54759  53.2168 129.9936 0001454 100.0072 260.1084 15.08837754 55874,6917.887,95.438,540.758,538.746,0.0
54759.0,STARLINK-5215,PAYLOAD,2023-12-09 10:18:58,15.08842922,0.0001402,53.2156,126.1256,109.9836,250.1307,0.00014739,2.059e-05,0.0,0 STARLINK-5215,1 54759U 22175B   23343.42984234  .00002059  00000-0  14739-3 0  9991,2 54759  53.2156 126.1256 0001402 109.9836 250.1307 15.08842922 53849,6917.871,95.437,540.706,538.767,0.0
54759.0,STARLINK-5215,PAYLOAD,2023-12-09 13:29:44,15.08846045,0.0001332,53.2159,125.5312,104.1437,255.9703,0.00017103,2.436e-05,0.0,0 STARLINK-5215,1 54759U 22175B   23343.56231950  .00002436  00000-0  17103-3 0  9993,2 54759  53.2159 125.5312 0001332 104.1437 255.9703 15.08846045 56020,6917.862,95.437,540.648,538.805,0.0
54759.0,STARLINK-5215,PAYLOAD,2023-12-10 14:55:53,15.08856419,0.0001191,53.2178,120.7729,80.6848,279.4279,9.6778e-05,1.253e-05,0.0,0 STARLINK-5215,1 54759U 22175B   23344.62215029  .00001253  00000-0  96778-4 0  9992,2 54759  53.2178 120.7729 0001191  80.6848 279.4279 15.08856419 56189,6917.83,95.437,540.519,538.871,0.0
54759.0,STARLINK-5215,PAYLOAD,2023-12-11 14:46:40,15.08849518,0.0001325,53.2181,116.3184,105.3103,254.8036,-6.1421e-05,-1.266e-05,0.0,0 STARLINK-5215,1 54759U 22175B   23345.61575193 -.00001266  00000-0 -61421-4 0  9996,2 54759  53.2181 116.3184 0001325 105.3103 254.8036 15.08849518 56334,6917.851,95.437,540.633,538.8,0.0
54759.0,STARLINK-5215,PAYLOAD,2023-12-11 16:22:04,15.08849057,0.0001177,53.2174,116.0186,79.2088,280.9036,-6.2419e-05,-1.281e-05,0.0,0 STARLINK-5215,1 54759U 22175B   23345.68199241 -.00001281  00000-0 -62419-4 0  9994,2 54759  53.2174 116.0186 0001177  79.2088 280.9036 15.08849057 54180,6917.853,95.437,540.532,538.903,0.0
54759.0,STARLINK-5215,PAYLOAD,2023-12-12 13:02:04,15.08845056,0.0001215,53.2173,112.1516,72.8707,287.2418,-6.1379e-07,-2.98e-06,0.0,0 STARLINK-5215,1 54759U 22175B   23346.54310743 -.00000298  00000-0 -61379-6 0  9995,2 54759  53.2173 112.1516 0001215  72.8707 287.2418 15.08845056 56476,6917.865,95.437,540.57,538.889,0.0
54759.0,STARLINK-5215,PAYLOAD,2023-12-12 16:12:50,15.08847587,0.0001271,53.2175,111.5565,71.7053,288.4078,2.077e-05,4.3e-07,0.0,0 STARLINK-5215,1 54759U 22175B   23346.67558478  .00000043  00000-0  20770-4 0  9992,2 54759  53.2175 111.5565 0001271  71.7053 288.4078 15.08847587 56497,6917.857,95.437,540.601,538.843,0.0
54759.0,STARLINK-5215,PAYLOAD,2023-12-13 14:28:14,15.08835857,0.0001425,53.2179,107.3929,63.3063,296.8075,-4.0055e-05,-9.25e-06,0.0,0 STARLINK-5215,1 54759U 22175B   23347.60294266 -.00000925  00000-0 -40055-4 0  9997,2 54759  53.2179 107.3929 0001425  63.3063 296.8075 15.08835857 56630,6917.893,95.438,540.744,538.772,0.0
54759.0,STARLINK-5215,PAYLOAD,2023-12-14 14:19:01,15.08838712,0.0001468,53.2183,102.9293,79.7641,280.3517,-7.0722e-05,-1.413e-05,0.0,0 STARLINK-5215,1 54759U 22175B   23348.59654362 -.00001413  00000-0 -70722-4 0  9990,2 54759  53.2183 102.9293 0001468  79.7641 280.3517 15.08838712 56788,6917.884,95.438,540.765,538.734,0.0
54759.0,STARLINK-5215,PAYLOAD,2023-12-15 10:59:02,15.08816735,0.0001822,53.2188,99.0635,106.1818,253.9374,0.00010801,1.43e-05,0.0,0 STARLINK-5215,1 54759U 22175B   23349.45766996  .00001430  00000-0  10801-3 0  9991,2 54759  53.2188  99.0635 0001822 106.1818 253.9374 15.08816735 54757,6917.952,95.439,541.077,538.556,0.0
54759.0,STARLINK-5215,PAYLOAD,2023-12-15 14:09:49,15.08820089,0.0001552,53.2187,98.468,77.6636,282.453,4.185e-05,3.78e-06,0.0,0 STARLINK-5215,1 54759U 22175B   23349.59015361  .00000378  00000-0  41850-4 0  9998,2 54759  53.2187  98.4680 0001552  77.6636 282.4530 15.08820089 56939,6917.941,95.439,540.88,538.733,0.0
54759.0,STARLINK-5215,PAYLOAD,2023-12-16 10:49:49,15.08837026,0.0001378,53.2176,94.6043,81.7579,278.357,5.6395e-05,6.1e-06,0.0,0 STARLINK-5215,1 54759U 22175B   23350.45126989  .00000610  00000-0  56395-4 0  9993,2 54759  53.2176  94.6043 0001378  81.7579 278.3570 15.08837026 54908,6917.889,95.438,540.708,538.801,0.0
54759.0,STARLINK-5215,PAYLOAD,2023-12-16 14:00:35,15.0884031,0.0001528,53.2188,94.0095,87.8633,272.2534,0.00012139,1.644e-05,0.0,0 STARLINK-5215,1 54759U 22175B   23350.58374616  .00001644  00000-0  12139-3 0  9994,2 54759  53.2188  94.0095 0001528  87.8633 272.2534 15.08840310 57082,6917.879,95.438,540.801,538.687,0.0
54759.0,STARLINK-5215,PAYLOAD,2023-12-17 12:16:00,15.08833559,0.0001443,53.2176,89.8478,100.0902,260.0253,4.3739e-05,4.08e-06,0.0,0 STARLINK-5215,1 54759U 22175B   23351.51111697  .00000408  00000-0  43739-4 0  9994,2 54759  53.2176  89.8478 0001443 100.0902 260.0253 15.08833559 55065,6917.9,95.438,540.763,538.767,0.0
54759.0,STARLINK-5215,PAYLOAD,2023-12-17 13:51:23,15.08833069,0.0001546,53.2182,89.5499,99.5149,260.6018,8.3914e-05,1.048e-05,0.0,0 STARLINK-5215,1 54759U 22175B   23351.57735673  .00001048  00000-0  83914-4 0  9996,2 54759  53.2182  89.5499 0001546  99.5149 260.6018 15.08833069 57233,6917.902,95.438,540.836,538.697,0.0
54759.0,STARLINK-5215,PAYLOAD,2023-12-18 12:06:46,15.08852125,0.0001468,53.2186,85.3908,97.4737,262.6422,5.3186e-05,5.59e-06,0.0,0 STARLINK-5215,1 54759U 22175B   23352.50470589  .00000559  00000-0  53186-4 0  9996,2 54759  53.2186  85.3908 0001468  97.4737 262.6422 15.08852125 55210,6917.843,95.437,540.724,538.693,0.0
54759.0,STARLINK-5215,PAYLOAD,2023-12-18 13:42:09,15.08857163,0.000148,53.219,85.093,90.2772,269.839,9.261e-05,1.187e-05,0.0,0 STARLINK-5215,1 54759U 22175B   23352.57094163  .00001187  00000-0  92610-4 0  9996,2 54759  53.2190  85.0930 0001480  90.2772 269.8390 15.08857163 57381,6917.828,95.436,540.717,538.669,0.0
54759.0,STARLINK-5215,PAYLOAD,2023-12-19 11:57:34,15.08841736,0.0001482,53.2191,80.931,86.3646,273.7516,2.6276e-05,1.3e-06,0.0,0 STARLINK-5215,1 54759U 22175B   23353.49831331  .00000130  00000-0  26276-4 0  9996,2 54759  53.2191  80.9310 0001482  86.3646 273.7516 15.08841736 55365,6917.875,95.437,540.765,538.715,0.0
54759.0,STARLINK-5215,PAYLOAD,2023-12-19 13:32:57,15.08844763,0.0001524,53.2188,80.6321,103.6271,256.4891,-1.5925e-05,-5.41e-06,0.0,0 STARLINK-5215,1 54759U 22175B   23353.56455148 -.00000541  00000-0 -15925-4 0  9999,2 54759  53.2188  80.6321 0001524 103.6271 256.4891 15.08844763 57532,6917.866,95.437,540.785,538.677,0.0
54759.0,STARLINK-5215,PAYLOAD,2023-12-20 11:48:22,15.08838015,0.0001875,53.2193,76.4662,58.9927,301.125,-0.00011362,-2.096e-05,0.0,0 STARLINK-5215,1 54759U 22175B   23354.49192324 -.00002096  00000-0 -11362-3 0  9993,2 54759  53.2193  76.4662 0001875  58.9927 301.1250 15.08838015 55514,6917.886,95.438,541.049,538.454,0.0
54759.0,STARLINK-5215,PAYLOAD,2023-12-20 13:23:45,15.08840994,0.0001746,53.219,76.1726,65.4973,294.6201,-8.6561e-05,-1.666e-05,0.0,0 STARLINK-5215,1 54759U 22175B   23354.55816065 -.00001666  00000-0 -86561-4 0  9991,2 54759  53.2190  76.1726 0001746  65.4973 294.6201 15.08840994 57681,6917.877,95.437,540.95,538.534,0.0
54759.0,STARLINK-5215,PAYLOAD,2023-12-21 11:39:08,15.08848063,0.0001533,53.2186,72.0108,70.3674,289.7483,0.0001471,2.054e-05,0.0,0 STARLINK-5215,1 54759U 22175B   23355.48550959  .00002054  00000-0  14710-3 0  9997,2 54759  53.2186  72.0108 0001533  70.3674 289.7483 15.08848063 55660,6917.856,95.437,540.781,538.66,0.0
54759.0,STARLINK-5215,PAYLOAD,2023-12-22 11:29:54,15.08853505,0.00013,53.2182,67.5501,87.5925,272.5216,0.00013513,1.864e-05,0.0,0 STARLINK-5215,1 54759U 22175B   23356.47910868  .00001864  00000-0  13513-3 0  9994,2 54759  53.2182  67.5501 0001300  87.5925 272.5216 15.08853505 57970,6917.839,95.437,540.603,538.805,0.0
54759.0,STARLINK-5215,PAYLOAD,2023-12-23 11:20:43,15.08834829,0.0001402,53.2186,63.0859,92.8278,267.2874,6.3835e-05,7.28e-06,0.0,0 STARLINK-5215,1 54759U 22175B   23357.47272063  .00000728  00000-0  63835-4 0  9994,2 54759  53.2186  63.0859 0001402  92.8278 267.2874 15.08834829 55960,6917.896,95.438,540.731,538.791,0.0
54759.0,STARLINK-5215,PAYLOAD,2023-12-23 14:31:29,15.08837433,0.0001416,53.219,62.4896,107.147,252.9677,8.8078e-05,1.114e-05,0.0,0 STARLINK-5215,1 54759U 22175B   23357.60519805  .00001114  00000-0  88078-4 0  9993,2 54759  53.2190  62.4896 0001416 107.1470 252.9677 15.08837433 58147,6917.888,95.438,540.733,538.774,0.0
54759.0,STARLINK-5215,PAYLOAD,2023-12-24 11:11:29,15.08850911,0.0001431,53.2178,58.6274,102.8462,257.269,2.784e-05,1.55e-06,0.0,0 STARLINK-5215,1 54759U 22175B   23358.46631559  .00000155  00000-0  27840-4 0  9993,2 54759  53.2178  58.6274 0001431 102.8462 257.2690 15.08850911 56114,6917.847,95.437,540.702,538.722,0.0
54759.0,STARLINK-5215,PAYLOAD,2023-12-25 03:05:21,15.08833426,0.0001431,53.2169,55.6555,96.4898,263.6258,0.00013046,1.789e-05,0.0,0 STARLINK-5215,1 54759U 22175B   23359.12872416  .00001789  00000-0  13046-3 0  9992,2 54759  53.2169  55.6555 0001431  96.4898 263.6258 15.08833426 56218,6917.9,95.438,540.755,538.776,0.0
54759.0,STARLINK-5215,PAYLOAD,2023-12-25 11:02:16,15.08842779,0.0001529,53.2174,54.1663,110.1569,249.9588,0.00017848,2.554e-05,0.0,0 STARLINK-5215,1 54759U 22175B   23359.45991766  .00002554  00000-0  17848-3 0  9993,2 54759  53.2174  54.1663 0001529 110.1569 249.9588 15.08842779 56264,6917.872,95.437,540.795,538.679,0.0
54759.0,STARLINK-5215,PAYLOAD,2023-12-26 09:17:41,15.08838656,0.0001701,53.2187,50.0016,121.5662,238.5497,1.4196e-06,-2.65e-06,0.0,0 STARLINK-5215,1 54759U 22175B   23360.38728653 -.00000265  00000-0  14196-5 0  9993,2 54759  53.2187  50.0016 0001701 121.5662 238.5497 15.08838656 56405,6917.884,95.438,540.926,538.573,0.0
